[{"OBJECT_NAME":"STARLINK-32480","OBJECT_ID":"2024-216H","EPOCH":"2026-03-09T21:18:41.922144","MEAN_MOTION":15.27594973,"ECCENTRICITY":0.00015091,"INCLINATION":42.9995,"RA_OF_ASC_NODE":255.4018,"ARG_OF_PERICENTER":272.9262,"MEAN_ANOMALY":87.1417,"EPHEMERIS_TYPE":0,"CLASSIFICATION_TYPE":"U","NORAD_CAT_ID":62039,"ELEMENT_SET_NO":999,"REV_AT_EPOCH":7274,"BSTAR":0.0010294265,"MEAN_MOTION_DOT":0.00028187,"MEAN_MOTION_DDOT":0},{"OBJECT_NAME":"GEOSCAN 5 (RS92S5)","OBJECT_ID":"2025-155R","EPOCH":"2026-03-09T22:01:07.273920","MEAN_MOTION":15.30265233,"ECCENTRICITY":0.00070849,"INCLINATION":97.4462,"RA_OF_ASC_NODE":37.7456,"ARG_OF_PERICENTER":154.5846,"MEAN_ANOMALY":205.5745,"EPHEMERIS_TYPE":0,"CLASSIFICATION_TYPE":"U","NORAD_CAT_ID":64891,"ELEMENT_SET_NO":999,"REV_AT_EPOCH":6562,"BSTAR":0.00068639307,"MEAN_MOTION_DOT":0.00020065,"MEAN_MOTION_DDOT":0}]
